{"type": "FeatureCollection", "features": [ {"type": "Feature", "properties": {"norad_id": 66052, "name": "HRC MONOBLOCK CAMERA", "group": "stations", "lat": -17.62556747771719, "lon": -81.70292260004803, "alt_km": 403.9226340506939, "timestamp": "2025-12-24T07:45:04.965611+00:00", "meta": {"OBJECT_NAME": "HRC MONOBLOCK CAMERA", "OBJECT_ID": "1998-067XR", "EPOCH": "2025-12-23T23:10:15.977280", "MEAN_MOTION": 15.54901889, "ECCENTRICITY": 0.00021517, "INCLINATION": 51.6306, "RA_OF_ASC_NODE": 85.5033, "ARG_OF_PERICENTER": 238.968, "MEAN_ANOMALY": 121.11, "EPHEMERIS_TYPE": 0, "CLASSIFICATION_TYPE": "U", "NORAD_CAT_ID": 66052, "ELEMENT_SET_NO": 999, "REV_AT_EPOCH": 1058, "BSTAR": 0.00050040184, "MEAN_MOTION_DOT": 0.00033738, "MEAN_MOTION_DDOT": 0}, "tle": {"line1": "1 66052U 98067XR  25357.96546270  .00033738  00000+0  50040-3 0  9995", "line2": "2 66052  51.6306  85.5033 0002151 238.9680 121.1100 15.54901889 10581"}}, "geometry": {"type": "Point", "coordinates": [-81.70292260004803, -17.62556747771719]}}, {"type": "Feature", "properties": {"norad_id": 66174, "name": "HTV-X1", "group": "stations", "lat": -48.123083083730634, "lon": -32.79606879158719, "alt_km": 420.3106032124888, "timestamp": "2025-12-24T07:45:04.965621+00:00", "meta": {"OBJECT_NAME": "HTV-X1", "OBJECT_ID": "2025-241A", "EPOCH": "2025-12-23T18:17:18.636000", "MEAN_MOTION": 15.49761422, "ECCENTRICITY": 0.00031718, "INCLINATION": 51.6321, "RA_OF_ASC_NODE": 87.8933, "ARG_OF_PERICENTER": 292.1344, "MEAN_ANOMALY": 67.9308, "EPHEMERIS_TYPE": 0, "CLASSIFICATION_TYPE": "U", "NORAD_CAT_ID": 66174, "ELEMENT_SET_NO": 999, "REV_AT_EPOCH": 51, "BSTAR": 0.00020966669, "MEAN_MOTION_DOT": 0.00011429, "MEAN_MOTION_DDOT": 0}, "tle": {"line1": "1 66174U 25241A   25357.76202125  .00011429  00000+0  20967-3 0  9998", "line2": "2 66174  51.6321  87.8933 0003171 292.1344  67.9308 15.49761422   519"}}, "geometry": {"type": "Point", "coordinates": [-32.79606879158719, -48.123083083730634]}}, {"type": "Feature", "properties": {"norad_id": 66515, "name": "SZ-21 MODULE", "group": "stations", "lat": 24.096226596745424, "lon": 94.9375536555009, "alt_km": 378.16101233596964, "timestamp": "2025-12-24T07:45:04.965631+00:00", "meta": {"OBJECT_NAME": "SZ-21 MODULE", "OBJECT_ID": "2025-246C", "EPOCH": "2025-12-23T06:36:43.308864", "MEAN_MOTION": 15.6302066, "ECCENTRICITY": 0.00050381, "INCLINATION": 41.4773, "RA_OF_ASC_NODE": 311.7518, "ARG_OF_PERICENTER": 316.6622, "MEAN_ANOMALY": 43.3822, "EPHEMERIS_TYPE": 0, "CLASSIFICATION_TYPE": "U", "NORAD_CAT_ID": 66515, "ELEMENT_SET_NO": 999, "REV_AT_EPOCH": 609, "BSTAR": 0.000303255, "MEAN_MOTION_DOT": 0.00028121, "MEAN_MOTION_DDOT": 0}, "tle": {"line1": "1 66515U 25246C   25357.27550126  .00028121  00000+0  30326-3 0  9992", "line2": "2 66515  41.4773 311.7518 0005038 316.6622  43.3822 15.63020660  6095"}}, "geometry": {"type": "Point", "coordinates": [94.9375536555009, 24.096226596745424]}}, {"type": "Feature", "properties": {"norad_id": 66645, "name": "SHENZHOU-22", "group": "stations", "lat": 41.38287441734166, "lon": 40.23494844046495, "alt_km": 377.7905083144278, "timestamp": "2025-12-24T07:45:04.965642+00:00", "meta": {"OBJECT_NAME": "SHENZHOU-22", "OBJECT_ID": "2025-272A", "EPOCH": "2025-12-23T22:08:03.098976", "MEAN_MOTION": 15.5961343, "ECCENTRICITY": 0.00080636, "INCLINATION": 41.4684, "RA_OF_ASC_NODE": 308.7959, "ARG_OF_PERICENTER": 129.7983, "MEAN_ANOMALY": 230.3567, "EPHEMERIS_TYPE": 0, "CLASSIFICATION_TYPE": "U", "NORAD_CAT_ID": 66645, "ELEMENT_SET_NO": 999, "REV_AT_EPOCH": 26550, "BSTAR": 0.00017429265, "MEAN_MOTION_DOT": 0.0001399, "MEAN_MOTION_DDOT": 0}, "tle": {"line1": "1 66645U 25272A   25357.92225809  .00013990  00000+0  17429-3 0  9991", "line2": "2 66645  41.4684 308.7959 0008063 129.7983 230.3567 15.59613430265504"}}, "geometry": {"type": "Point", "coordinates": [40.23494844046495, 41.38287441734166]}}, {"type": "Feature", "properties": {"norad_id": 66664, "name": "SOYUZ-MS 28", "group": "stations", "lat": -48.123083794033, "lon": -32.796066095322836, "alt_km": 420.310603185374, "timestamp": "2025-12-24T07:45:04.965651+00:00", "meta": {"OBJECT_NAME": "SOYUZ-MS 28", "OBJECT_ID": "2025-275A", "EPOCH": "2025-12-23T18:17:18.636000", "MEAN_MOTION": 15.49761422, "ECCENTRICITY": 0.00031718, "INCLINATION": 51.6321, "RA_OF_ASC_NODE": 87.8933, "ARG_OF_PERICENTER": 292.1344, "MEAN_ANOMALY": 67.9308, "EPHEMERIS_TYPE": 0, "CLASSIFICATION_TYPE": "U", "NORAD_CAT_ID": 66664, "ELEMENT_SET_NO": 999, "REV_AT_EPOCH": 128, "BSTAR": 0.00020966669, "MEAN_MOTION_DOT": 0.00011429, "MEAN_MOTION_DDOT": 0}, "tle": {"line1": "1 66664U 25275A   25357.76202125  .00011429  00000+0  20967-3 0  9999", "line2": "2 66664  51.6321  87.8933 0003171 292.1344  67.9308 15.49761422  1288"}}, "geometry": {"type": "Point", "coordinates": [-32.796066095322836, -48.123083794033]}}, {"type": "Feature", "properties": {"norad_id": 66906, "name": "1998-067XS", "group": "stations", "lat": -21.506591871996502, "lon": 66.75601707191802, "alt_km": 415.74956740518155, "timestamp": "2025-12-24T07:45:04.965661+00:00", "meta": {"OBJECT_NAME": "1998-067XS", "OBJECT_ID": "1998-067XS", "EPOCH": "2025-12-23T13:19:00.111360", "MEAN_MOTION": 15.51136039, "ECCENTRICITY": 0.00028154, "INCLINATION": 51.6316, "RA_OF_ASC_NODE": 88.7613, "ARG_OF_PERICENTER": 256.8779, "MEAN_ANOMALY": 103.1896, "EPHEMERIS_TYPE": 0, "CLASSIFICATION_TYPE": "U", "NORAD_CAT_ID": 66906, "ELEMENT_SET_NO": 999, "REV_AT_EPOCH": 329, "BSTAR": 0.00048512679, "MEAN_MOTION_DOT": 0.0002847, "MEAN_MOTION_DDOT": 0}, "tle": {"line1": "1 66906U 98067XS  25357.55486240  .00028470  00000+0  48513-3 0  9997", "line2": "2 66906  51.6316  88.7613 0002815 256.8779 103.1896 15.51136039  3290"}}, "geometry": {"type": "Point", "coordinates": [66.75601707191802, -21.506591871996502]}}, {"type": "Feature", "properties": {"norad_id": 66907, "name": "1998-067XT", "group": "stations", "lat": 30.78592499330556, "lon": 112.96900630007151, "alt_km": 405.1839306102256, "timestamp": "2025-12-24T07:45:04.965671+00:00", "meta": {"OBJECT_NAME": "1998-067XT", "OBJECT_ID": "1998-067XT", "EPOCH": "2025-12-23T11:29:49.841376", "MEAN_MOTION": 15.52745506, "ECCENTRICITY": 0.0003882, "INCLINATION": 51.6313, "RA_OF_ASC_NODE": 89.0045, "ARG_OF_PERICENTER": 291.7662, "MEAN_ANOMALY": 68.2915, "EPHEMERIS_TYPE": 0, "CLASSIFICATION_TYPE": "U", "NORAD_CAT_ID": 66907, "ELEMENT_SET_NO": 999, "REV_AT_EPOCH": 328, "BSTAR": 0.0010348952, "MEAN_MOTION_DOT": 0.00065231, "MEAN_MOTION_DDOT": 0}, "tle": {"line1": "1 66907U 98067XT  25357.47904909  .00065231  00000+0  10349-2 0  9997", "line2": "2 66907  51.6313  89.0045 0003882 291.7662  68.2915 15.52745506  3283"}}, "geometry": {"type": "Point", "coordinates": [112.96900630007151, 30.78592499330556]}}, {"type": "Feature", "properties": {"norad_id": 66908, "name": "1998-067XU", "group": "stations", "lat": 34.699923370866465, "lon": 118.06144051100713, "alt_km": 404.6112101515255, "timestamp": "2025-12-24T07:45:04.965697+00:00", "meta": {"OBJECT_NAME": "1998-067XU", "OBJECT_ID": "1998-067XU", "EPOCH": "2025-12-23T11:28:24.726144", "MEAN_MOTION": 15.52842233, "ECCENTRICITY": 0.00039209, "INCLINATION": 51.6312, "RA_OF_ASC_NODE": 88.9976, "ARG_OF_PERICENTER": 289.9814, "MEAN_ANOMALY": 70.0754, "EPHEMERIS_TYPE": 0, "CLASSIFICATION_TYPE": "U", "NORAD_CAT_ID": 66908, "ELEMENT_SET_NO": 999, "REV_AT_EPOCH": 328, "BSTAR": 0.0010206619, "MEAN_MOTION_DOT": 0.00064549, "MEAN_MOTION_DDOT": 0}, "tle": {"line1": "1 66908U 98067XU  25357.47806396  .00064549  00000+0  10207-2 0  9993", "line2": "2 66908  51.6312  88.9976 0003920 289.9814  70.0754 15.52842233  3282"}}, "geometry": {"type": "Point", "coordinates": [118.06144051100713, 34.699923370866465]}}, {"type": "Feature", "properties": {"norad_id": 66909, "name": "SILVERSAT", "group": "stations", "lat": 39.8834006230579, "lon": 126.23176379379336, "alt_km": 403.3168594080853, "timestamp": "2025-12-24T07:45:04.965711+00:00", "meta": {"OBJECT_NAME": "SILVERSAT", "OBJECT_ID": "1998-067XV", "EPOCH": "2025-12-23T06:48:27.239040", "MEAN_MOTION": 15.53013948, "ECCENTRICITY": 0.00038718, "INCLINATION": 51.6305, "RA_OF_ASC_NODE": 89.9502, "ARG_OF_PERICENTER": 293.696, "MEAN_ANOMALY": 66.3623, "EPHEMERIS_TYPE": 0, "CLASSIFICATION_TYPE": "U", "NORAD_CAT_ID": 66909, "ELEMENT_SET_NO": 999, "REV_AT_EPOCH": 325, "BSTAR": 0.0011375182, "MEAN_MOTION_DOT": 0.00072516, "MEAN_MOTION_DDOT": 0}, "tle": {"line1": "1 66909U 98067XV  25357.28364860  .00072516  00000+0  11375-2 0  9998", "line2": "2 66909  51.6305  89.9502 0003871 293.6960  66.3623 15.53013948  3254"}}, "geometry": {"type": "Point", "coordinates": [126.23176379379336, 39.8834006230579]}}, {"type": "Feature", "properties": {"norad_id": 66910, "name": "1998-067XW", "group": "stations", "lat": 44.9747772394072, "lon": 137.08727042299674, "alt_km": 403.9951944184386, "timestamp": "2025-12-24T07:45:04.965721+00:00", "meta": {"OBJECT_NAME": "1998-067XW", "OBJECT_ID": "1998-067XW", "EPOCH": "2025-12-23T11:23:56.481792", "MEAN_MOTION": 15.5298943, "ECCENTRICITY": 0.00039882, "INCLINATION": 51.6309, "RA_OF_ASC_NODE": 88.9767, "ARG_OF_PERICENTER": 265.4983, "MEAN_ANOMALY": 94.5551, "EPHEMERIS_TYPE": 0, "CLASSIFICATION_TYPE": "U", "NORAD_CAT_ID": 66910, "ELEMENT_SET_NO": 999, "REV_AT_EPOCH": 328, "BSTAR": 0.00097986031, "MEAN_MOTION_DOT": 0.00062264, "MEAN_MOTION_DDOT": 0}, "tle": {"line1": "1 66910U 98067XW  25357.47495928  .00062264  00000+0  97986-3 0  9993", "line2": "2 66910  51.6309  88.9767 0003988 265.4983  94.5551 15.52989430  3286"}}, "geometry": {"type": "Point", "coordinates": [137.08727042299674, 44.9747772394072]}}]}